ONEWEB-0431             
1 51630U 22012J   26030.07968358  .00000699  00000+0  19666-2 0  9992
2 51630  87.8764  63.7843 0001668 118.6183 241.5113 13.10371890191255
ONEWEB-0434             
1 51631U 22012K   26030.13306865 -.00000001  00000+0 -39451-4 0  9994
2 51631  87.8756  63.8057 0002351  83.3707 276.7688 13.10377351191249
ONEWEB-0435             
1 51632U 22012L   26030.14123790  .00000345  00000+0  95190-3 0  9990
2 51632  87.8759  63.7945 0001414  91.4290 268.6999 13.10376820191238
ONEWEB-0436             
1 51633U 22012M   26030.23618656 -.00000009  00000+0 -56371-4 0  9999
2 51633  87.9097  33.2465 0001612  91.2048 268.9269 13.17647432195518
ONEWEB-0438             
1 51634U 22012N   26030.12462434 -.00000701  00000+0 -20436-2 0  9999
2 51634  87.8757  63.7987 0001988  92.7515 267.3840 13.10374762191261
ONEWEB-0439             
1 51635U 22012P   26030.12794650 -.00000325  00000+0 -96615-3 0  9993
2 51635  87.8758  63.7871 0001796  92.2007 267.9326 13.10376912191245
ONEWEB-0442             
1 51636U 22012Q   26030.22861006 -.00000006  00000+0 -48640-4 0  9997
2 51636  87.9087  33.2911 0002428  86.0839 274.0570 13.17647098195502
ONEWEB-0443             
1 51637U 22012R   26030.02019655  .00000016  00000+0  85154-5 0  9992
2 51637  87.9083  33.3359 0001938  79.8999 280.2351 13.17650945195521
ONEWEB-0444             
1 51638U 22012S   26030.11798135 -.00000640  00000+0 -18690-2 0  9993
2 51638  87.8757  63.7875 0001801  93.7009 266.4325 13.10372402191250
ONEWEB-0445             
1 51639U 22012T   26030.06322027  .00000288  00000+0  78736-3 0  9995
2 51639  87.8774  63.7730 0001876 102.3132 257.8205 13.10378787191259
ONEWEB-0446             
1 51640U 22012U   26030.11632078 -.00000642  00000+0 -18757-2 0  9995
2 51640  87.8755  63.8043 0001920  99.1194 261.0150 13.10372410191241
ONEWEB-0448             
1 51641U 22012V   26030.12130068 -.00000741  00000+0 -21600-2 0  9990
2 51641  87.8754  63.8020 0001761  94.7047 265.4282 13.10374101191217
ONEWEB-0449             
1 51642U 22012W   26030.12628707 -.00000418  00000+0 -12337-2 0  9991
2 51642  87.8765  63.7760 0002195  85.9381 274.1997 13.10376159191221
ONEWEB-0451             
1 51643U 22012X   26030.23281715  .00000159  00000+0  37529-3 0  9999
2 51643  87.9097  33.2424 0001905  86.0211 274.1139 13.17651090195490
ONEWEB-0452             
1 51644U 22012Y   26030.00333608  .00000052  00000+0  10143-3 0  9999
2 51644  87.9086  33.3382 0001883  79.8748 280.2596 13.17650045195475
ONEWEB-0456             
1 51646U 22012AA  26030.13624887  .00000111  00000+0  28174-3 0  9996
2 51646  87.8776  63.7488 0001645  95.8445 264.2870 13.10376922191266
ONEWEB-0457             
1 51647U 22012AB  26030.11300677 -.00000628  00000+0 -18355-2 0  9997
2 51647  87.8755  63.7922 0002257  99.6559 260.4824 13.10371564191269
