[{"OBJECT_NAME":"ONEWEB-0431","OBJECT_ID":"2022-012J","EPOCH":"2026-01-30T01:54:44.661312","MEAN_MOTION":13.1037189,"ECCENTRICITY":0.00016687,"INCLINATION":87.8764,"RA_OF_ASC_NODE":63.7843,"ARG_OF_PERICENTER":118.6183,"MEAN_ANOMALY":241.5113,"EPHEMERIS_TYPE":0,"CLASSIFICATION_TYPE":"U","NORAD_CAT_ID":51630,"ELEMENT_SET_NO":999,"REV_AT_EPOCH":19125,"BSTAR":0.0019665921,"MEAN_MOTION_DOT":6.99e-6,"MEAN_MOTION_DDOT":0},{"OBJECT_NAME":"ONEWEB-0434","OBJECT_ID":"2022-012K","EPOCH":"2026-01-30T03:11:37.131360","MEAN_MOTION":13.10377351,"ECCENTRICITY":0.00023518,"INCLINATION":87.8756,"RA_OF_ASC_NODE":63.8057,"ARG_OF_PERICENTER":83.3707,"MEAN_ANOMALY":276.7688,"EPHEMERIS_TYPE":0,"CLASSIFICATION_TYPE":"U","NORAD_CAT_ID":51631,"ELEMENT_SET_NO":999,"REV_AT_EPOCH":19124,"BSTAR":-3.9451363e-5,"MEAN_MOTION_DOT":-1.0e-8,"MEAN_MOTION_DDOT":0},{"OBJECT_NAME":"ONEWEB-0435","OBJECT_ID":"2022-012L","EPOCH":"2026-01-30T03:23:22.954560","MEAN_MOTION":13.1037682,"ECCENTRICITY":0.00014148,"INCLINATION":87.8759,"RA_OF_ASC_NODE":63.7945,"ARG_OF_PERICENTER":91.429,"MEAN_ANOMALY":268.6999,"EPHEMERIS_TYPE":0,"CLASSIFICATION_TYPE":"U","NORAD_CAT_ID":51632,"ELEMENT_SET_NO":999,"REV_AT_EPOCH":19123,"BSTAR":0.00095190407,"MEAN_MOTION_DOT":3.45e-6,"MEAN_MOTION_DDOT":0},{"OBJECT_NAME":"ONEWEB-0436","OBJECT_ID":"2022-012M","EPOCH":"2026-01-30T05:40:06.518784","MEAN_MOTION":13.17647432,"ECCENTRICITY":0.00016124,"INCLINATION":87.9097,"RA_OF_ASC_NODE":33.2465,"ARG_OF_PERICENTER":91.2048,"MEAN_ANOMALY":268.9269,"EPHEMERIS_TYPE":0,"CLASSIFICATION_TYPE":"U","NORAD_CAT_ID":51633,"ELEMENT_SET_NO":999,"REV_AT_EPOCH":19551,"BSTAR":-5.6371085e-5,"MEAN_MOTION_DOT":-9.0e-8,"MEAN_MOTION_DDOT":0},{"OBJECT_NAME":"ONEWEB-0438","OBJECT_ID":"2022-012N","EPOCH":"2026-01-30T02:59:27.542976","MEAN_MOTION":13.10374762,"ECCENTRICITY":0.0001988,"INCLINATION":87.8757,"RA_OF_ASC_NODE":63.7987,"ARG_OF_PERICENTER":92.7515,"MEAN_ANOMALY":267.384,"EPHEMERIS_TYPE":0,"CLASSIFICATION_TYPE":"U","NORAD_CAT_ID":51634,"ELEMENT_SET_NO":999,"REV_AT_EPOCH":19126,"BSTAR":-0.0020436029,"MEAN_MOTION_DOT":-7.01e-6,"MEAN_MOTION_DDOT":0},{"OBJECT_NAME":"ONEWEB-0439","OBJECT_ID":"2022-012P","EPOCH":"2026-01-30T03:04:14.577600","MEAN_MOTION":13.10376912,"ECCENTRICITY":0.00017968,"INCLINATION":87.8758,"RA_OF_ASC_NODE":63.7871,"ARG_OF_PERICENTER":92.2007,"MEAN_ANOMALY":267.9326,"EPHEMERIS_TYPE":0,"CLASSIFICATION_TYPE":"U","NORAD_CAT_ID":51635,"ELEMENT_SET_NO":999,"REV_AT_EPOCH":19124,"BSTAR":-0.00096614856,"MEAN_MOTION_DOT":-3.25e-6,"MEAN_MOTION_DDOT":0},{"OBJECT_NAME":"ONEWEB-0442","OBJECT_ID":"2022-012Q","EPOCH":"2026-01-30T05:29:11.909184","MEAN_MOTION":13.17647098,"ECCENTRICITY":0.00024286,"INCLINATION":87.9087,"RA_OF_ASC_NODE":33.2911,"ARG_OF_PERICENTER":86.0839,"MEAN_ANOMALY":274.057,"EPHEMERIS_TYPE":0,"CLASSIFICATION_TYPE":"U","NORAD_CAT_ID":51636,"ELEMENT_SET_NO":999,"REV_AT_EPOCH":19550,"BSTAR":-4.8639885e-5,"MEAN_MOTION_DOT":-6.0e-8,"MEAN_MOTION_DDOT":0},{"OBJECT_NAME":"ONEWEB-0443","OBJECT_ID":"2022-012R","EPOCH":"2026-01-30T00:29:04.981920","MEAN_MOTION":13.17650945,"ECCENTRICITY":0.00019387,"INCLINATION":87.9083,"RA_OF_ASC_NODE":33.3359,"ARG_OF_PERICENTER":79.8999,"MEAN_ANOMALY":280.2351,"EPHEMERIS_TYPE":0,"CLASSIFICATION_TYPE":"U","NORAD_CAT_ID":51637,"ELEMENT_SET_NO":999,"REV_AT_EPOCH":19552,"BSTAR":8.515368e-6,"MEAN_MOTION_DOT":1.6e-7,"MEAN_MOTION_DDOT":0},{"OBJECT_NAME":"ONEWEB-0444","OBJECT_ID":"2022-012S","EPOCH":"2026-01-30T02:49:53.588640","MEAN_MOTION":13.10372402,"ECCENTRICITY":0.00018012,"INCLINATION":87.8757,"RA_OF_ASC_NODE":63.7875,"ARG_OF_PERICENTER":93.7009,"MEAN_ANOMALY":266.4325,"EPHEMERIS_TYPE":0,"CLASSIFICATION_TYPE":"U","NORAD_CAT_ID":51638,"ELEMENT_SET_NO":999,"REV_AT_EPOCH":19125,"BSTAR":-0.0018689511,"MEAN_MOTION_DOT":-6.4e-6,"MEAN_MOTION_DDOT":0},{"OBJECT_NAME":"ONEWEB-0445","OBJECT_ID":"2022-012T","EPOCH":"2026-01-30T01:31:02.231328","MEAN_MOTION":13.10378787,"ECCENTRICITY":0.00018767,"INCLINATION":87.8774,"RA_OF_ASC_NODE":63.773,"ARG_OF_PERICENTER":102.3132,"MEAN_ANOMALY":257.8205,"EPHEMERIS_TYPE":0,"CLASSIFICATION_TYPE":"U","NORAD_CAT_ID":51639,"ELEMENT_SET_NO":999,"REV_AT_EPOCH":19125,"BSTAR":0.00078736008,"MEAN_MOTION_DOT":2.88e-6,"MEAN_MOTION_DDOT":0},{"OBJECT_NAME":"ONEWEB-0446","OBJECT_ID":"2022-012U","EPOCH":"2026-01-30T02:47:30.115392","MEAN_MOTION":13.1037241,"ECCENTRICITY":0.00019209,"INCLINATION":87.8755,"RA_OF_ASC_NODE":63.8043,"ARG_OF_PERICENTER":99.1194,"MEAN_ANOMALY":261.015,"EPHEMERIS_TYPE":0,"CLASSIFICATION_TYPE":"U","NORAD_CAT_ID":51640,"ELEMENT_SET_NO":999,"REV_AT_EPOCH":19124,"BSTAR":-0.0018756854,"MEAN_MOTION_DOT":-6.42e-6,"MEAN_MOTION_DDOT":0},{"OBJECT_NAME":"ONEWEB-0448","OBJECT_ID":"2022-012V","EPOCH":"2026-01-30T02:54:40.378752","MEAN_MOTION":13.10374101,"ECCENTRICITY":0.00017619,"INCLINATION":87.8754,"RA_OF_ASC_NODE":63.802,"ARG_OF_PERICENTER":94.7047,"MEAN_ANOMALY":265.4282,"EPHEMERIS_TYPE":0,"CLASSIFICATION_TYPE":"U","NORAD_CAT_ID":51641,"ELEMENT_SET_NO":999,"REV_AT_EPOCH":19121,"BSTAR":-0.0021599891,"MEAN_MOTION_DOT":-7.41e-6,"MEAN_MOTION_DDOT":0},{"OBJECT_NAME":"ONEWEB-0449","OBJECT_ID":"2022-012W","EPOCH":"2026-01-30T03:01:51.202848","MEAN_MOTION":13.10376159,"ECCENTRICITY":0.00021953,"INCLINATION":87.8765,"RA_OF_ASC_NODE":63.776,"ARG_OF_PERICENTER":85.9381,"MEAN_ANOMALY":274.1997,"EPHEMERIS_TYPE":0,"CLASSIFICATION_TYPE":"U","NORAD_CAT_ID":51642,"ELEMENT_SET_NO":999,"REV_AT_EPOCH":19122,"BSTAR":-0.0012337154,"MEAN_MOTION_DOT":-4.18e-6,"MEAN_MOTION_DDOT":0},{"OBJECT_NAME":"ONEWEB-0451","OBJECT_ID":"2022-012X","EPOCH":"2026-01-30T05:35:15.401760","MEAN_MOTION":13.1765109,"ECCENTRICITY":0.00019055,"INCLINATION":87.9097,"RA_OF_ASC_NODE":33.2424,"ARG_OF_PERICENTER":86.0211,"MEAN_ANOMALY":274.1139,"EPHEMERIS_TYPE":0,"CLASSIFICATION_TYPE":"U","NORAD_CAT_ID":51643,"ELEMENT_SET_NO":999,"REV_AT_EPOCH":19549,"BSTAR":0.00037529224,"MEAN_MOTION_DOT":1.59e-6,"MEAN_MOTION_DDOT":0},{"OBJECT_NAME":"ONEWEB-0452","OBJECT_ID":"2022-012Y","EPOCH":"2026-01-30T00:04:48.237312","MEAN_MOTION":13.17650045,"ECCENTRICITY":0.00018836,"INCLINATION":87.9086,"RA_OF_ASC_NODE":33.3382,"ARG_OF_PERICENTER":79.8748,"MEAN_ANOMALY":280.2596,"EPHEMERIS_TYPE":0,"CLASSIFICATION_TYPE":"U","NORAD_CAT_ID":51644,"ELEMENT_SET_NO":999,"REV_AT_EPOCH":19547,"BSTAR":0.00010143065,"MEAN_MOTION_DOT":5.2e-7,"MEAN_MOTION_DDOT":0},{"OBJECT_NAME":"ONEWEB-0456","OBJECT_ID":"2022-012AA","EPOCH":"2026-01-30T03:16:11.902368","MEAN_MOTION":13.10376922,"ECCENTRICITY":0.00016451,"INCLINATION":87.8776,"RA_OF_ASC_NODE":63.7488,"ARG_OF_PERICENTER":95.8445,"MEAN_ANOMALY":264.287,"EPHEMERIS_TYPE":0,"CLASSIFICATION_TYPE":"U","NORAD_CAT_ID":51646,"ELEMENT_SET_NO":999,"REV_AT_EPOCH":19126,"BSTAR":0.00028174286,"MEAN_MOTION_DOT":1.11e-6,"MEAN_MOTION_DDOT":0},{"OBJECT_NAME":"ONEWEB-0457","OBJECT_ID":"2022-012AB","EPOCH":"2026-01-30T02:42:43.784928","MEAN_MOTION":13.10371564,"ECCENTRICITY":0.0002257,"INCLINATION":87.8755,"RA_OF_ASC_NODE":63.7922,"ARG_OF_PERICENTER":99.6559,"MEAN_ANOMALY":260.4824,"EPHEMERIS_TYPE":0,"CLASSIFICATION_TYPE":"U","NORAD_CAT_ID":51647,"ELEMENT_SET_NO":999,"REV_AT_EPOCH":19126,"BSTAR":-0.0018355366,"MEAN_MOTION_DOT":-6.28e-6,"MEAN_MOTION_DDOT":0}]
